[Satellite]
VERSION=1.1
NAME=FLOCK 3P-83
NICKNAME=FLOCK 3P-83
TLE1=1 42050U 17008DG  18020.81939875  .00003344  00000-0  14172-3 0  9990
TLE2=2 42050  97.4715  86.5369 0009491 146.5560 213.6279 15.23807417 51557
